{
  "norad_id": 60109,
  "name": "STARLINK-32040",
  "history": [
    {
      "epoch": "2026-03-28T21:45:01.746144Z",
      "apogee_km": 475.9376885228894,
      "perigee_km": 474.5272650845636,
      "latitude_deg": 2.727885374758899e-05,
      "longitude_deg": 154.93274811497946,
      "height_km": 476.2605953216119,
      "semi_major_axis_km": 6853.369476803727,
      "eccentricity": 0.0001029,
      "inclination_deg": 53.1604,
      "raan_deg": 307.51,
      "arg_perigee_deg": 100.5946,
      "mean_anomaly_deg": 259.5171,
      "mean_motion_rev_day": 15.3019417
    }
  ]
}