{"fetched_at":"2026-03-30T06:02:59Z","count":15439,"tles":[{"name":"STARLINK-32040","line1":"1 60109U 24117U   26087.90627021 -.00000676  00000+0 -10707-4 0  9990","line2":"2 60109  53.1604 307.5100 0001029 100.5946 259.5171 15.30194170 99830","category":"Starlink"}]}